{"fetched_at":"2026-07-07T18:29:04.699Z","source":"https://celestrak.org/NORAD/elements/gp.php?GROUP=kuiper&FORMAT=JSON","constellation":"kuiper","records":[{"OBJECT_NAME":"KUIPER-00153","OBJECT_ID":"2025-217M","EPOCH":"2026-07-07T02:16:42.129120","CLASSIFICATION_TYPE":"U","MEAN_MOTION":14.79928876,"ECCENTRICITY":0.0000504,"INCLINATION":51.9007,"RA_OF_ASC_NODE":217.6658,"ARG_OF_PERICENTER":88.1203,"MEAN_ANOMALY":271.9817,"EPHEMERIS_TYPE":0,"NORAD_CAT_ID":65773,"ELEMENT_SET_NO":999,"REV_AT_EPOCH":4280,"BSTAR":0.00020909,"MEAN_MOTION_DOT":0.00001373,"MEAN_MOTION_DDOT":0},{"OBJECT_NAME":"KUIPER-00155","OBJECT_ID":"2025-217N","EPOCH":"2026-07-07T09:28:22.174176","CLASSIFICATION_TYPE":"U","MEAN_MOTION":14.79934082,"ECCENTRICITY":0.0000483,"INCLINATION":51.9,"RA_OF_ASC_NODE":188.8027,"ARG_OF_PERICENTER":68.6226,"MEAN_ANOMALY":291.4788,"EPHEMERIS_TYPE":0,"NORAD_CAT_ID":65774,"ELEMENT_SET_NO":999,"REV_AT_EPOCH":4323,"BSTAR":0.0002324,"MEAN_MOTION_DOT":0.00001551,"MEAN_MOTION_DDOT":0},{"OBJECT_NAME":"KUIPER-00156","OBJECT_ID":"2025-217P","EPOCH":"2026-07-07T03:05:18.491136","CLASSIFICATION_TYPE":"U","MEAN_MOTION":14.79936349,"ECCENTRICITY":0.0000416,"INCLINATION":51.901,"RA_OF_ASC_NODE":217.4983,"ARG_OF_PERICENTER":85.4542,"MEAN_ANOMALY":274.6468,"EPHEMERIS_TYPE":0,"NORAD_CAT_ID":65775,"ELEMENT_SET_NO":999,"REV_AT_EPOCH":4280,"BSTAR":0.00025832,"MEAN_MOTION_DOT":0.00001749,"MEAN_MOTION_DDOT":0},{"OBJECT_NAME":"KUIPER-00163","OBJECT_ID":"2025-217R","EPOCH":"2026-07-07T10:00:05.000256","CLASSIFICATION_TYPE":"U","MEAN_MOTION":15.99371227,"ECCENTRICITY":0.000528,"INCLINATION":51.8761,"RA_OF_ASC_NODE":159.2361,"ARG_OF_PERICENTER":51.8587,"MEAN_ANOMALY":120.4373,"EPHEMERIS_TYPE":0,"NORAD_CAT_ID":65777,"ELEMENT_SET_NO":999,"REV_AT_EPOCH":571,"BSTAR":0.00050824,"MEAN_MOTION_DOT":0.00255287,"MEAN_MOTION_DDOT":0.00003817},{"OBJECT_NAME":"KUIPER-00165","OBJECT_ID":"2025-217S","EPOCH":"2026-07-06T09:00:04.166208","CLASSIFICATION_TYPE":"U","MEAN_MOTION":14.79934669,"ECCENTRICITY":0.00006368,"INCLINATION":51.8998,"RA_OF_ASC_NODE":230.7775,"ARG_OF_PERICENTER":95.7976,"MEAN_ANOMALY":264.3059,"EPHEMERIS_TYPE":0,"NORAD_CAT_ID":65778,"ELEMENT_SET_NO":999,"REV_AT_EPOCH":4255,"BSTAR":-0.00051198372,"MEAN_MOTION_DOT":-0.00004122,"MEAN_MOTION_DDOT":0},{"OBJECT_NAME":"KUIPER-00166","OBJECT_ID":"2025-217T","EPOCH":"2026-07-07T02:20:34.068192","CLASSIFICATION_TYPE":"U","MEAN_MOTION":14.79936132,"ECCENTRICITY":0.0000399,"INCLINATION":51.9009,"RA_OF_ASC_NODE":215.1301,"ARG_OF_PERICENTER":81.7297,"MEAN_ANOMALY":278.371,"EPHEMERIS_TYPE":0,"NORAD_CAT_ID":65779,"ELEMENT_SET_NO":999,"REV_AT_EPOCH":4283,"BSTAR":0.00021596,"MEAN_MOTION_DOT":0.00001426,"MEAN_MOTION_DDOT":0},{"OBJECT_NAME":"KUIPER-00167","OBJECT_ID":"2025-217U","EPOCH":"2026-07-07T04:11:24.737568","CLASSIFICATION_TYPE":"U","MEAN_MOTION":14.79944114,"ECCENTRICITY":0.0000734,"INCLINATION":51.8914,"RA_OF_ASC_NODE":237.1521,"ARG_OF_PERICENTER":99.4369,"MEAN_ANOMALY":260.6677,"EPHEMERIS_TYPE":0,"NORAD_CAT_ID":65780,"ELEMENT_SET_NO":999,"REV_AT_EPOCH":4253,"BSTAR":-0.00021672,"MEAN_MOTION_DOT":-0.00001873,"MEAN_MOTION_DDOT":0},{"OBJECT_NAME":"KUIPER-00168","OBJECT_ID":"2025-217V","EPOCH":"2026-07-07T11:07:37.380576","CLASSIFICATION_TYPE":"U","MEAN_MOTION":14.79936507,"ECCENTRICITY":0.0000416,"INCLINATION":51.899,"RA_OF_ASC_NODE":218.4685,"ARG_OF_PERICENTER":79.0849,"MEAN_ANOMALY":281.016,"EPHEMERIS_TYPE":0,"NORAD_CAT_ID":65781,"ELEMENT_SET_NO":999,"REV_AT_EPOCH":4282,"BSTAR":0.00024146,"MEAN_MOTION_DOT":0.0000162,"MEAN_MOTION_DDOT":0},{"OBJECT_NAME":"KUIPER-00169","OBJECT_ID":"2025-217W","EPOCH":"2026-07-06T07:26:44.779200","CLASSIFICATION_TYPE":"U","MEAN_MOTION":14.79925563,"ECCENTRICITY":0.0000529,"INCLINATION":51.8988,"RA_OF_ASC_NODE":228.5778,"ARG_OF_PERICENTER":90.7136,"MEAN_ANOMALY":269.3887,"EPHEMERIS_TYPE":0,"NORAD_CAT_ID":65782,"ELEMENT_SET_NO":999,"REV_AT_EPOCH":4258,"BSTAR":-0.000054912523,"MEAN_MOTION_DOT":-0.0000064,"MEAN_MOTION_DDOT":0},{"OBJECT_NAME":"KUIPER-00170","OBJECT_ID":"2025-217X","EPOCH":"2026-07-06T08:56:12.477696","CLASSIFICATION_TYPE":"U","MEAN_MOTION":14.79930473,"ECCENTRICITY":0.0000483,"INCLINATION":51.8974,"RA_OF_ASC_NODE":233.2626,"ARG_OF_PERICENTER":93.4359,"MEAN_ANOMALY":266.6659,"EPHEMERIS_TYPE":0,"NORAD_CAT_ID":65783,"ELEMENT_SET_NO":999,"REV_AT_EPOCH":4252,"BSTAR":0.00037387606,"MEAN_MOTION_DOT":0.0000263,"MEAN_MOTION_DDOT":0},{"OBJECT_NAME":"KUIPER-00172","OBJECT_ID":"2025-217Z","EPOCH":"2026-07-07T10:30:40.338432","CLASSIFICATION_TYPE":"U","MEAN_MOTION":14.79923963,"ECCENTRICITY":0.0001012,"INCLINATION":51.8973,"RA_OF_ASC_NODE":211.0789,"ARG_OF_PERICENTER":94.6793,"MEAN_ANOMALY":265.4285,"EPHEMERIS_TYPE":0,"NORAD_CAT_ID":65785,"ELEMENT_SET_NO":999,"REV_AT_EPOCH":4292,"BSTAR":0.0000027329,"MEAN_MOTION_DOT":-0.000002,"MEAN_MOTION_DDOT":0},{"OBJECT_NAME":"KUIPER-00173","OBJECT_ID":"2025-217AA","EPOCH":"2026-07-07T02:04:59.525184","CLASSIFICATION_TYPE":"U","MEAN_MOTION":14.79941323,"ECCENTRICITY":0.0000653,"INCLINATION":51.8984,"RA_OF_ASC_NODE":225.1382,"ARG_OF_PERICENTER":102.1459,"MEAN_ANOMALY":257.9576,"EPHEMERIS_TYPE":0,"NORAD_CAT_ID":65786,"ELEMENT_SET_NO":999,"REV_AT_EPOCH":4269,"BSTAR":0.00017082,"MEAN_MOTION_DOT":0.00001082,"MEAN_MOTION_DDOT":0},{"OBJECT_NAME":"KUIPER-00174","OBJECT_ID":"2025-217AB","EPOCH":"2026-07-07T02:12:48.645216","CLASSIFICATION_TYPE":"U","MEAN_MOTION":14.79927426,"ECCENTRICITY":0.0000464,"INCLINATION":51.9008,"RA_OF_ASC_NODE":220.1636,"ARG_OF_PERICENTER":81.8058,"MEAN_ANOMALY":278.2957,"EPHEMERIS_TYPE":0,"NORAD_CAT_ID":65787,"ELEMENT_SET_NO":999,"REV_AT_EPOCH":4276,"BSTAR":0.00038068,"MEAN_MOTION_DOT":0.00002682,"MEAN_MOTION_DDOT":0},{"OBJECT_NAME":"KUIPER-00176","OBJECT_ID":"2025-217AC","EPOCH":"2026-07-06T07:59:49.499520","CLASSIFICATION_TYPE":"U","MEAN_MOTION":14.79932786,"ECCENTRICITY":0.00005013,"INCLINATION":51.8966,"RA_OF_ASC_NODE":238.455,"ARG_OF_PERICENTER":96.1681,"MEAN_ANOMALY":263.9338,"EPHEMERIS_TYPE":0,"NORAD_CAT_ID":65788,"ELEMENT_SET_NO":999,"REV_AT_EPOCH":4244,"BSTAR":0.00023943464,"MEAN_MOTION_DOT":0.00001605,"MEAN_MOTION_DDOT":0},{"OBJECT_NAME":"KUIPER-00101","OBJECT_ID":"2025-228A","EPOCH":"2026-07-07T00:29:38.700384","CLASSIFICATION_TYPE":"U","MEAN_MOTION":14.79930905,"ECCENTRICITY":0.0000414,"INCLINATION":51.8966,"RA_OF_ASC_NODE":192.874,"ARG_OF_PERICENTER":74.7356,"MEAN_ANOMALY":285.3652,"EPHEMERIS_TYPE":0,"NORAD_CAT_ID":65947,"ELEMENT_SET_NO":999,"REV_AT_EPOCH":4090,"BSTAR":0.00019491,"MEAN_MOTION_DOT":0.00001265,"MEAN_MOTION_DDOT":0},{"OBJECT_NAME":"KUIPER-00113","OBJECT_ID":"2025-228B","EPOCH":"2026-07-06T17:19:47.021664","CLASSIFICATION_TYPE":"U","MEAN_MOTION":14.79922094,"ECCENTRICITY":0.0000499,"INCLINATION":51.8957,"RA_OF_ASC_NODE":189.2141,"ARG_OF_PERICENTER":75.7346,"MEAN_ANOMALY":284.3671,"EPHEMERIS_TYPE":0,"NORAD_CAT_ID":65948,"ELEMENT_SET_NO":999,"REV_AT_EPOCH":4092,"BSTAR":-0.000059897,"MEAN_MOTION_DOT":-0.00000677,"MEAN_MOTION_DDOT":0}]}
