KUIPER-00153            
1 65773U 25217M   26188.09493205  .00001373  00000+0  20909-3 0  9998
2 65773  51.9007 217.6658 0000504  88.1203 271.9817 14.79928876 42808
KUIPER-00155            
1 65774U 25217N   26188.39470109  .00001551  00000+0  23240-3 0  9999
2 65774  51.9000 188.8027 0000483  68.6226 291.4788 14.79934082 43233
KUIPER-00156            
1 65775U 25217P   26188.12868624  .00001749  00000+0  25832-3 0  9992
2 65775  51.9010 217.4983 0000416  85.4542 274.6468 14.79936349 42807
KUIPER-00163            
1 65777U 25217R   26188.41672454  .00255287  38170-4  50824-3 0  9991
2 65777  51.8761 159.2361 0005280  51.8587 120.4373 15.99371227  5717
KUIPER-00165            
1 65778U 25217S   26187.37504822 -.00004122  00000+0 -51198-3 0  9992
2 65778  51.8998 230.7775 0000636  95.7976 264.3059 14.79934669 42557
KUIPER-00166            
1 65779U 25217T   26188.09761653  .00001426  00000+0  21596-3 0  9991
2 65779  51.9009 215.1301 0000399  81.7297 278.3710 14.79936132 42838
KUIPER-00167            
1 65780U 25217U   26188.17459187 -.00001873  00000+0 -21672-3 0  9991
2 65780  51.8914 237.1521 0000734  99.4369 260.6677 14.79944114 42533
KUIPER-00168            
1 65781U 25217V   26188.46362709  .00001620  00000+0  24146-3 0  9994
2 65781  51.8990 218.4685 0000416  79.0849 281.0160 14.79936507 42828
KUIPER-00169            
1 65782U 25217W   26187.31024050 -.00000640  00000+0 -54913-4 0  9991
2 65782  51.8988 228.5778 0000529  90.7136 269.3887 14.79925563 42583
KUIPER-00170            
1 65783U 25217X   26187.37236664  .00002630  00000+0  37388-3 0  9999
2 65783  51.8974 233.2626 0000483  93.4359 266.6659 14.79930473 42527
KUIPER-00172            
1 65785U 25217Z   26188.43796688 -.00000200  00000+0  27329-5 0  9994
2 65785  51.8973 211.0789 0001012  94.6793 265.4285 14.79923963 42928
KUIPER-00173            
1 65786U 25217AA  26188.08680006  .00001082  00000+0  17082-3 0  9993
2 65786  51.8984 225.1382 0000653 102.1459 257.9576 14.79941323 42693
KUIPER-00174            
1 65787U 25217AB  26188.09222969  .00002682  00000+0  38068-3 0  9999
2 65787  51.9008 220.1636 0000464  81.8058 278.2957 14.79927426 42762
KUIPER-00176            
1 65788U 25217AC  26187.33321180  .00001605  00000+0  23943-3 0  9991
2 65788  51.8966 238.4550 0000501  96.1681 263.9338 14.79932786 42449
KUIPER-00101            
1 65947U 25228A   26188.02058681  .00001265  00000+0  19491-3 0  9995
2 65947  51.8966 192.8740 0000414  74.7356 285.3652 14.79930905 40901
KUIPER-00113            
1 65948U 25228B   26187.72207201 -.00000677  00000+0 -59897-4 0  9999
2 65948  51.8957 189.2141 0000499  75.7346 284.3671 14.79922094 40922
